EUTELSAT QUANTUM        
1 49056U 21069B   25269.15633326  .00000130  00000+0  00000+0 0  9997
2 49056   0.0347  62.8977 0002337 138.4687 267.8310  1.00273625 15280
EUTELSAT KONNECT VHTS   
1 53765U 22110A   25269.14740655  .00000021  00000+0  00000+0 0  9999
2 53765   0.0550 102.9290 0002706  61.2067 256.8524  1.00270298  4171
EUTELSAT HOTBIRD 13F    
1 54048U 22134A   25269.14948656  .00000091  00000+0  00000+0 0  9998
2 54048   0.0555 288.0928 0002039  77.0852  66.8537  1.00272683 10722
EUTELSAT HOTBIRD 13G    
1 54225U 22146A   25269.14948656  .00000091  00000+0  00000+0 0  9998
2 54225   0.0438 230.5775 0001984 304.1795 257.2838  1.00272578  4815
EUTELSAT 10B            
1 54259U 22157A   25269.14887990  .00000073  00000+0  00000+0 0  9990
2 54259   0.0571 100.6608 0001726 357.0064 331.1390  1.00273562 10368
EUTELSAT 36D            
1 59346U 24059A   25269.08262115  .00000159  00000+0  00000+0 0  9999
2 59346   0.0033 145.8084 0000256 319.0532 325.8819  1.00271817  5492
